{"type": "FeatureCollection", "features": [ {"type": "Feature", "properties": {"norad_id": 41836, "name": "HIMAWARI-9", "group": "weather", "lat": -0.01236755387862354, "lon": -29.99950155159013, "alt_km": 35780.905409611594, "timestamp": "2025-12-07T07:31:35.946867+00:00", "meta": {"OBJECT_NAME": "HIMAWARI-9", "OBJECT_ID": "2016-064A", "EPOCH": "2025-12-06T14:20:08.226816", "MEAN_MOTION": 1.00270611, "ECCENTRICITY": 0.00017155, "INCLINATION": 0.014, "RA_OF_ASC_NODE": 61.0764, "ARG_OF_PERICENTER": 229.5948, "MEAN_ANOMALY": 140.757, "EPHEMERIS_TYPE": 0, "CLASSIFICATION_TYPE": "U", "NORAD_CAT_ID": 41836, "ELEMENT_SET_NO": 999, "REV_AT_EPOCH": 3327, "BSTAR": 0, "MEAN_MOTION_DOT": -2.68e-06, "MEAN_MOTION_DDOT": 0}, "tle": {"line1": "1 41836U 16064A   25340.59731744 -.00000268  00000+0  00000+0 0  9998", "line2": "2 41836   0.0140  61.0764 0001715 229.5948 140.7570  1.00270611 33273"}}, "geometry": {"type": "Point", "coordinates": [-29.99950155159013, -0.01236755387862354]}}, {"type": "Feature", "properties": {"norad_id": 41866, "name": "GOES 16", "group": "weather", "lat": 0.006712959073331948, "lon": 84.5574114519118, "alt_km": 35801.0580126452, "timestamp": "2025-12-07T07:31:35.946880+00:00", "meta": {"OBJECT_NAME": "GOES 16", "OBJECT_ID": "2016-071A", "EPOCH": "2025-12-06T21:43:40.357344", "MEAN_MOTION": 1.00271398, "ECCENTRICITY": 0.00035226, "INCLINATION": 0.0643, "RA_OF_ASC_NODE": 106.572, "ARG_OF_PERICENTER": 152.8562, "MEAN_ANOMALY": 37.7578, "EPHEMERIS_TYPE": 0, "CLASSIFICATION_TYPE": "U", "NORAD_CAT_ID": 41866, "ELEMENT_SET_NO": 999, "REV_AT_EPOCH": 3317, "BSTAR": 0, "MEAN_MOTION_DOT": -8.5e-07, "MEAN_MOTION_DDOT": 0}, "tle": {"line1": "1 41866U 16071A   25340.90532821 -.00000085  00000+0  00000+0 0  9996", "line2": "2 41866   0.0643 106.5720 0003522 152.8562  37.7578  1.00271398 33174"}}, "geometry": {"type": "Point", "coordinates": [84.5574114519118, 0.006712959073331948]}}, {"type": "Feature", "properties": {"norad_id": 41882, "name": "FENGYUN 4A", "group": "weather", "lat": -1.4308877832012246, "lon": -46.911772204661276, "alt_km": 35783.99839692451, "timestamp": "2025-12-07T07:31:35.946892+00:00", "meta": {"OBJECT_NAME": "FENGYUN 4A", "OBJECT_ID": "2016-077A", "EPOCH": "2025-12-06T15:57:57.009024", "MEAN_MOTION": 1.00276523, "ECCENTRICITY": 0.00050257, "INCLINATION": 1.8332, "RA_OF_ASC_NODE": 82.4537, "ARG_OF_PERICENTER": 143.1616, "MEAN_ANOMALY": 213.3727, "EPHEMERIS_TYPE": 0, "CLASSIFICATION_TYPE": "U", "NORAD_CAT_ID": 41882, "ELEMENT_SET_NO": 999, "REV_AT_EPOCH": 3299, "BSTAR": 0, "MEAN_MOTION_DOT": -3.51e-06, "MEAN_MOTION_DDOT": 0}, "tle": {"line1": "1 41882U 16077A   25340.66524316 -.00000351  00000+0  00000+0 0  9999", "line2": "2 41882   1.8332  82.4537 0005025 143.1616 213.3727  1.00276523 32999"}}, "geometry": {"type": "Point", "coordinates": [-46.911772204661276, -1.4308877832012246]}}, {"type": "Feature", "properties": {"norad_id": 41884, "name": "CYGFM05", "group": "weather", "lat": -20.35348075835391, "lon": 50.49655801884573, "alt_km": 431.88084660365257, "timestamp": "2025-12-07T07:31:35.946912+00:00", "meta": {"OBJECT_NAME": "CYGFM05", "OBJECT_ID": "2016-078A", "EPOCH": "2025-12-06T16:12:11.957760", "MEAN_MOTION": 15.47308278, "ECCENTRICITY": 0.00094349, "INCLINATION": 34.9599, "RA_OF_ASC_NODE": 86.7363, "ARG_OF_PERICENTER": 125.7686, "MEAN_ANOMALY": 234.3914, "EPHEMERIS_TYPE": 0, "CLASSIFICATION_TYPE": "U", "NORAD_CAT_ID": 41884, "ELEMENT_SET_NO": 999, "REV_AT_EPOCH": 49882, "BSTAR": 0.00057222613, "MEAN_MOTION_DOT": 0.00030212, "MEAN_MOTION_DDOT": 0}, "tle": {"line1": "1 41884U 16078A   25340.67513840  .00030212  00000+0  57223-3 0  9994", "line2": "2 41884  34.9599  86.7363 0009434 125.7686 234.3914 15.47308278498826"}}, "geometry": {"type": "Point", "coordinates": [50.49655801884573, -20.35348075835391]}}, {"type": "Feature", "properties": {"norad_id": 41885, "name": "CYGFM04", "group": "weather", "lat": 17.11941722105646, "lon": -148.6840825846837, "alt_km": 407.2788290161661, "timestamp": "2025-12-07T07:31:35.946931+00:00", "meta": {"OBJECT_NAME": "CYGFM04", "OBJECT_ID": "2016-078B", "EPOCH": "2025-12-06T15:25:46.846848", "MEAN_MOTION": 15.49987284, "ECCENTRICITY": 0.00086984, "INCLINATION": 34.9353, "RA_OF_ASC_NODE": 61.8983, "ARG_OF_PERICENTER": 154.9668, "MEAN_ANOMALY": 205.1477, "EPHEMERIS_TYPE": 0, "CLASSIFICATION_TYPE": "U", "NORAD_CAT_ID": 41885, "ELEMENT_SET_NO": 999, "REV_AT_EPOCH": 49899, "BSTAR": 0.00057197689, "MEAN_MOTION_DOT": 0.00033191, "MEAN_MOTION_DDOT": 0}, "tle": {"line1": "1 41885U 16078B   25340.64290332  .00033191  00000+0  57198-3 0  9990", "line2": "2 41885  34.9353  61.8983 0008698 154.9668 205.1477 15.49987284498992"}}, "geometry": {"type": "Point", "coordinates": [-148.6840825846837, 17.11941722105646]}}, {"type": "Feature", "properties": {"norad_id": 41886, "name": "CYGFM02", "group": "weather", "lat": 23.778453148342496, "lon": -163.22885764915313, "alt_km": 401.6344049265035, "timestamp": "2025-12-07T07:31:35.946943+00:00", "meta": {"OBJECT_NAME": "CYGFM02", "OBJECT_ID": "2016-078C", "EPOCH": "2025-12-06T21:40:50.086272", "MEAN_MOTION": 15.5135622, "ECCENTRICITY": 0.00104598, "INCLINATION": 34.9441, "RA_OF_ASC_NODE": 58.591, "ARG_OF_PERICENTER": 156.7938, "MEAN_ANOMALY": 203.3259, "EPHEMERIS_TYPE": 0, "CLASSIFICATION_TYPE": "U", "NORAD_CAT_ID": 41886, "ELEMENT_SET_NO": 999, "REV_AT_EPOCH": 49916, "BSTAR": 0.00051657722, "MEAN_MOTION_DOT": 0.0003149, "MEAN_MOTION_DDOT": 0}, "tle": {"line1": "1 41886U 16078C   25340.90335748  .00031490  00000+0  51658-3 0  9996", "line2": "2 41886  34.9441  58.5910 0010459 156.7938 203.3259 15.51356220499163"}}, "geometry": {"type": "Point", "coordinates": [-163.22885764915313, 23.778453148342496]}}, {"type": "Feature", "properties": {"norad_id": 41887, "name": "CYGFM01", "group": "weather", "lat": -2.60093390141071, "lon": 81.2249187495642, "alt_km": 425.77031328861176, "timestamp": "2025-12-07T07:31:35.946954+00:00", "meta": {"OBJECT_NAME": "CYGFM01", "OBJECT_ID": "2016-078D", "EPOCH": "2025-12-06T17:36:55.295712", "MEAN_MOTION": 15.47882024, "ECCENTRICITY": 0.0009063, "INCLINATION": 34.9427, "RA_OF_ASC_NODE": 88.7437, "ARG_OF_PERICENTER": 117.4524, "MEAN_ANOMALY": 242.712, "EPHEMERIS_TYPE": 0, "CLASSIFICATION_TYPE": "U", "NORAD_CAT_ID": 41887, "ELEMENT_SET_NO": 999, "REV_AT_EPOCH": 49877, "BSTAR": 0.00058130197, "MEAN_MOTION_DOT": 0.00031314, "MEAN_MOTION_DDOT": 0}, "tle": {"line1": "1 41887U 16078D   25340.73397333  .00031314  00000+0  58130-3 0  9993", "line2": "2 41887  34.9427  88.7437 0009063 117.4524 242.7120 15.47882024498772"}}, "geometry": {"type": "Point", "coordinates": [81.2249187495642, -2.60093390141071]}}, {"type": "Feature", "properties": {"norad_id": 41888, "name": "CYGFM08", "group": "weather", "lat": 11.499829954072295, "lon": 84.94876933735287, "alt_km": 421.1402439970043, "timestamp": "2025-12-07T07:31:35.946965+00:00", "meta": {"OBJECT_NAME": "CYGFM08", "OBJECT_ID": "2016-078E", "EPOCH": "2025-12-06T15:58:19.766784", "MEAN_MOTION": 15.49065547, "ECCENTRICITY": 0.00108309, "INCLINATION": 34.9461, "RA_OF_ASC_NODE": 72.2536, "ARG_OF_PERICENTER": 142.51, "MEAN_ANOMALY": 217.6379, "EPHEMERIS_TYPE": 0, "CLASSIFICATION_TYPE": "U", "NORAD_CAT_ID": 41888, "ELEMENT_SET_NO": 999, "REV_AT_EPOCH": 49899, "BSTAR": 0.00059130563, "MEAN_MOTION_DOT": 0.00033239, "MEAN_MOTION_DDOT": 0}, "tle": {"line1": "1 41888U 16078E   25340.66550656  .00033239  00000+0  59131-3 0  9995", "line2": "2 41888  34.9461  72.2536 0010830 142.5100 217.6379 15.49065547498998"}}, "geometry": {"type": "Point", "coordinates": [84.94876933735287, 11.499829954072295]}}, {"type": "Feature", "properties": {"norad_id": 41890, "name": "CYGFM07", "group": "weather", "lat": -1.816772662304631, "lon": 54.417898741342, "alt_km": 422.9899470681048, "timestamp": "2025-12-07T07:31:35.946976+00:00", "meta": {"OBJECT_NAME": "CYGFM07", "OBJECT_ID": "2016-078G", "EPOCH": "2025-12-06T22:15:49.226112", "MEAN_MOTION": 15.49652636, "ECCENTRICITY": 0.0009249, "INCLINATION": 34.9482, "RA_OF_ASC_NODE": 59.5503, "ARG_OF_PERICENTER": 163.8179, "MEAN_ANOMALY": 196.284, "EPHEMERIS_TYPE": 0, "CLASSIFICATION_TYPE": "U", "NORAD_CAT_ID": 41890, "ELEMENT_SET_NO": 999, "REV_AT_EPOCH": 49905, "BSTAR": 0.00051604337, "MEAN_MOTION_DOT": 0.00029579, "MEAN_MOTION_DDOT": 0}, "tle": {"line1": "1 41890U 16078G   25340.92765308  .00029579  00000+0  51604-3 0  9998", "line2": "2 41890  34.9482  59.5503 0009249 163.8179 196.2840 15.49652636499054"}}, "geometry": {"type": "Point", "coordinates": [54.417898741342, -1.816772662304631]}}, {"type": "Feature", "properties": {"norad_id": 41891, "name": "CYGFM03", "group": "weather", "lat": -7.800073604579255, "lon": -109.74965377717659, "alt_km": 413.3405724583099, "timestamp": "2025-12-07T07:31:35.946987+00:00", "meta": {"OBJECT_NAME": "CYGFM03", "OBJECT_ID": "2016-078H", "EPOCH": "2025-12-06T15:14:01.040064", "MEAN_MOTION": 15.495391, "ECCENTRICITY": 0.0008508, "INCLINATION": 34.9433, "RA_OF_ASC_NODE": 63.3845, "ARG_OF_PERICENTER": 147.6188, "MEAN_ANOMALY": 212.5057, "EPHEMERIS_TYPE": 0, "CLASSIFICATION_TYPE": "U", "NORAD_CAT_ID": 41891, "ELEMENT_SET_NO": 999, "REV_AT_EPOCH": 49898, "BSTAR": 0.00056634029, "MEAN_MOTION_DOT": 0.00032339, "MEAN_MOTION_DDOT": 0}, "tle": {"line1": "1 41891U 16078H   25340.63473426  .00032339  00000+0  56634-3 0  9990", "line2": "2 41891  34.9433  63.3845 0008508 147.6188 212.5057 15.49539100498983"}}, "geometry": {"type": "Point", "coordinates": [-109.74965377717659, -7.800073604579255]}}]}